*******************************************************************************
JPL/HORIZONS                359 Georgia (A893 ED)          2023-Sep-04 11:05:53
Rec #:     359 (+COV) Soln.date: 2023-Aug-23_11:47:26   # obs: 6180 (1893-2023)
 
IAU76/J2000 helio. ecliptic osc. elements (au, days, deg., period=Julian yrs):
 
  EPOCH=  2456528.5 ! 2013-Aug-24.00 (TDB)         Residual RMS= .26911
   EC= .1544752507897967   QR= 2.309834934673204   TP= 2456118.0794929988
   OM= 6.224563591384883   W=  338.4667260553391   IN= 6.761493855158887
   A= 2.731835983311901    MA= 89.5882791683769    ADIST= 3.153837031950598
   PER= 4.51534            N= .21828412            ANGMOM= .028090808
   DAN= 2.33161            DDN= 3.11413            L= 344.8274744
   B= -2.4767638           MOID= 1.30373001        TP= 2012-Jul-09.5794929988
 
Asteroid physical parameters (km, seconds, rotational period in hours):
   GM= n.a.                RAD= 21.945             ROTPER= 5.537
   H= 9.49                 G= .150                 B-V= .723
                           ALBEDO= .2621           STYP= X

ASTEROID comments: 
1: soln ref.= JPL#118, OCC=0
2: source=ORB
*******************************************************************************


*******************************************************************************
Ephemeris / API_USER Mon Sep  4 11:05:53 2023 Pasadena, USA      / Horizons
*******************************************************************************
Target body name: 359 Georgia (A893 ED)           {source: JPL#118}
Center body name: Solar System Barycenter (0)     {source: DE441}
Center-site name: BODY CENTER
*******************************************************************************
Start time      : A.D. 2023-Aug-12 00:00:00.0000 TDB
Stop  time      : A.D. 2023-Aug-13 00:00:00.0000 TDB
Step-size       : 2880 minutes
*******************************************************************************
Center geodetic : 0.0, 0.0, 0.0                   {E-lon(deg),Lat(deg),Alt(km)}
Center cylindric: 0.0, 0.0, 0.0                   {E-lon(deg),Dxy(km),Dz(km)}
Center radii    : (undefined)
Small perturbers: Yes                             {source: SB441-N16}
Output units    : KM-S
Calendar mode   : Mixed Julian/Gregorian
Output type     : GEOMETRIC cartesian states
Output format   : 2 (position and velocity)
Reference frame : Ecliptic of J2000.0
*******************************************************************************
Initial IAU76/J2000 heliocentric ecliptic osculating elements (au, days, deg.):
  EPOCH=  2456528.5 ! 2013-Aug-24.00 (TDB)         Residual RMS= .26911        
   EC= .1544752507897967   QR= 2.309834934673204   TP= 2456118.0794929988      
   OM= 6.224563591384883   W=  338.4667260553391   IN= 6.761493855158887       
  Equivalent ICRF heliocentric cartesian coordinates (au, au/d):
   X=-8.229980623181354E-02  Y= 2.413364928424348E+00  Z= 1.403645115983768E+00
  VX=-1.009792608247275E-02 VY= 1.023587454494491E-03 VZ= 7.439202962450715E-04
Asteroid physical parameters (km, seconds, rotational period in hours):        
   GM= n.a.                RAD= 21.945             ROTPER= 5.537               
   H= 9.49                 G= .150                 B-V= .723                   
                           ALBEDO= .2621           STYP= X                     
*******************************************************************************
JDTDB
   X     Y     Z
   VX    VY    VZ
*******************************************************************************
$$SOE
2460168.500000000 = A.D. 2023-Aug-12 00:00:00.0000 TDB 
 X =-4.236055081941919E+08 Y = 2.054946262925049E+08 Z = 2.958919053777911E+07
 VX=-7.261539269012269E+00 VY=-1.356540984205606E+01 VZ=-1.510554920569519E+00
$$EOE
*******************************************************************************
 
TIME

  Barycentric Dynamical Time ("TDB" or T_eph) output was requested. This
continuous coordinate time is equivalent to the relativistic proper time
of a clock at rest in a reference frame co-moving with the solar system
barycenter but outside the system's gravity well. It is the independent
variable in the solar system relativistic equations of motion.

  TDB runs at a uniform rate of one SI second per second and is independent
of irregularities in Earth's rotation.
 
CALENDAR SYSTEM

  Mixed calendar mode was active such that calendar dates after AD 1582-Oct-15
(if any) are in the modern Gregorian system. Dates prior to 1582-Oct-5 (if any)
are in the Julian calendar system, which is automatically extended for dates
prior to its adoption on 45-Jan-1 BC.  The Julian calendar is useful for
matching historical dates. The Gregorian calendar more accurately corresponds
to the Earth's orbital motion and seasons. A "Gregorian-only" calendar mode is
available if such physical events are the primary interest.

REFERENCE FRAME AND COORDINATES

  Ecliptic at the standard reference epoch

    Reference epoch: J2000.0
    X-Y plane: adopted Earth orbital plane at the reference epoch
               Note: IAU76 obliquity of 84381.448 arcseconds wrt ICRF X-Y plane
    X-axis   : ICRF
    Z-axis   : perpendicular to the X-Y plane in the directional (+ or -) sense
               of Earth's north pole at the reference epoch.

  Symbol meaning:

    JDTDB    Julian Day Number, Barycentric Dynamical Time
      X      X-component of position vector (km)
      Y      Y-component of position vector (km)
      Z      Z-component of position vector (km)
      VX     X-component of velocity vector (km/sec)                           
      VY     Y-component of velocity vector (km/sec)                           
      VZ     Z-component of velocity vector (km/sec)                           

ABERRATIONS AND CORRECTIONS

 Geometric state vectors have NO corrections or aberrations applied.

Computations by ...

    Solar System Dynamics Group, Horizons On-Line Ephemeris System
    4800 Oak Grove Drive, Jet Propulsion Laboratory
    Pasadena, CA  91109   USA

    General site: https://ssd.jpl.nasa.gov/
    Mailing list: https://ssd.jpl.nasa.gov/email_list.html
    System news : https://ssd.jpl.nasa.gov/horizons/news.html
    User Guide  : https://ssd.jpl.nasa.gov/horizons/manual.html
    Connect     : browser        https://ssd.jpl.nasa.gov/horizons/app.html#/x
                  API            https://ssd-api.jpl.nasa.gov/doc/horizons.html
                  command-line   telnet ssd.jpl.nasa.gov 6775
                  e-mail/batch   https://ssd.jpl.nasa.gov/ftp/ssd/hrzn_batch.txt
                  scripts        https://ssd.jpl.nasa.gov/ftp/ssd/SCRIPTS
    Author      : Jon.D.Giorgini@jpl.nasa.gov
*******************************************************************************
